[{"OBJECT_NAME":"STARLINK-34543","OBJECT_ID":"2025-157Y","EPOCH":"2026-03-09T23:30:44.880768","MEAN_MOTION":15.30208791,"ECCENTRICITY":0.00012146,"INCLINATION":53.1597,"RA_OF_ASC_NODE":344.6418,"ARG_OF_PERICENTER":83.3354,"MEAN_ANOMALY":276.7785,"EPHEMERIS_TYPE":0,"CLASSIFICATION_TYPE":"U","NORAD_CAT_ID":64926,"ELEMENT_SET_NO":999,"REV_AT_EPOCH":3611,"BSTAR":0.00071031824,"MEAN_MOTION_DOT":0.00020743,"MEAN_MOTION_DDOT":0},{"OBJECT_NAME":"FENGYUN 1C DEB","OBJECT_ID":"1999-025AQG","EPOCH":"2026-03-09T10:43:06.043872","MEAN_MOTION":15.25746961,"ECCENTRICITY":0.00178142,"INCLINATION":98.9311,"RA_OF_ASC_NODE":250.2123,"ARG_OF_PERICENTER":328.3876,"MEAN_ANOMALY":31.6286,"EPHEMERIS_TYPE":0,"CLASSIFICATION_TYPE":"U","NORAD_CAT_ID":30674,"ELEMENT_SET_NO":999,"REV_AT_EPOCH":98658,"BSTAR":0.015201752,"MEAN_MOTION_DOT":0.00411052,"MEAN_MOTION_DDOT":0}]
